KINEIS-1B               
1 60079U 24114A   26201.90904895  .00000384  00000+0  56862-4 0  9994
2 60079  97.9828 225.9335 0002515  24.9832 335.1501 14.80671780112393
KINEIS-1C               
1 60081U 24114C   26201.94267689  .00000383  00000+0  56693-4 0  9995
2 60081  97.9842 225.8236 0002564  87.6251 272.5255 14.80673631112371
KINEIS-1D               
1 60082U 24114D   26201.99965023  .00000387  00000+0  63071-4 0  9990
2 60082  97.9879 221.7670 0002971  89.4847 270.6703 14.76367116112114
KINEIS-1E               
1 60083U 24114E   26201.96040895  .00000466  00000+0  67272-4 0  9994
2 60083  97.8945 224.8467 0004230  97.8334 262.3359 14.80699754112385
KINEIS-1A               
1 60084U 24114F   26201.99389429  .00000427  00000+0  62313-4 0  9995
2 60084  97.8918 224.9714 0005075  48.1634 312.0010 14.80687342112390
KINEIS-3C               
1 61220U 24172A   26201.78156261  .00000934  00000+0  15567-3 0  9996
2 61220  98.0432 291.3244 0002489  73.8524 286.2957 14.72300489 98011
KINEIS-3D               
1 61221U 24172B   26201.23114903  .00000538  00000+0  93069-4 0  9998
2 61221  98.0434 290.7900 0002320  76.5452 283.6014 14.72296085 98213
KINEIS-3E               
1 61222U 24172C   26201.75780143  .00000917  00000+0  15303-3 0  9996
2 61222  98.0427 291.2918 0001665  85.8350 274.3047 14.72286901 98299
KINEIS-3A               
1 61223U 24172D   26201.80908590  .00000911  00000+0  15202-3 0  9993
2 61223  98.0423 291.4407 0001774  29.9250 330.2058 14.72320264 97722
KINEIS-3B               
1 61224U 24172E   26201.79176511  .00000908  00000+0  15157-3 0  9997
2 61224  98.0418 291.4454 0001176  13.8201 346.3038 14.72306457 98290
KINEIS-5C               
1 62081U 24219A   26201.90485064  .00000369  00000+0  65968-4 0  9997
2 62081  97.9075 359.8266 0004599 156.9484 203.1931 14.72319063 88718
KINEIS-5D               
1 62082U 24219B   26201.93066681  .00000576  00000+0  98298-4 0  9993
2 62082  97.9186 359.9290 0005702 151.4540 208.6981 14.72499931 88729
KINEIS-5E               
1 62083U 24219C   26201.88129402  .00000373  00000+0  66657-4 0  9998
2 62083  97.9031 359.8948 0007178 148.1890 211.9752 14.72303463 88725
KINEIS-5A               
1 62084U 24219D   26201.92757715  .00000542  00000+0  93404-4 0  9996
2 62084  97.8972   0.2150 0004201 180.7683 179.3519 14.72282157 88732
KINEIS-5B               
1 62085U 24219E   26201.95696837  .00000651  00000+0  96515-4 0  9994
2 62085  98.0096   5.6017 0002811 134.2607 225.8835 14.78392849 88991
KINEIS-2C               
1 62929U 25028B   26201.86880991  .00000923  00000+0  15018-3 0  9996
2 62929  98.1226 256.2978 0004628 144.9699 215.1814 14.73439299 77578
