{"fetched_at":"2026-07-21T07:06:59.938Z","source":"https://celestrak.org/NORAD/elements/gp.php?NAME=KINEIS&FORMAT=JSON","constellation":"kineis","records":[{"OBJECT_NAME":"KINEIS-1B","OBJECT_ID":"2024-114A","EPOCH":"2026-07-20T21:49:01.829280","CLASSIFICATION_TYPE":"U","MEAN_MOTION":14.8067178,"ECCENTRICITY":0.00025158,"INCLINATION":97.9828,"RA_OF_ASC_NODE":225.9335,"ARG_OF_PERICENTER":24.9832,"MEAN_ANOMALY":335.1501,"EPHEMERIS_TYPE":0,"NORAD_CAT_ID":60079,"ELEMENT_SET_NO":999,"REV_AT_EPOCH":11239,"BSTAR":0.000056861631,"MEAN_MOTION_DOT":0.00000384,"MEAN_MOTION_DDOT":0},{"OBJECT_NAME":"KINEIS-1C","OBJECT_ID":"2024-114C","EPOCH":"2026-07-20T22:37:27.283296","CLASSIFICATION_TYPE":"U","MEAN_MOTION":14.80673631,"ECCENTRICITY":0.00025646,"INCLINATION":97.9842,"RA_OF_ASC_NODE":225.8236,"ARG_OF_PERICENTER":87.6251,"MEAN_ANOMALY":272.5255,"EPHEMERIS_TYPE":0,"NORAD_CAT_ID":60081,"ELEMENT_SET_NO":999,"REV_AT_EPOCH":11237,"BSTAR":0.000056693206,"MEAN_MOTION_DOT":0.00000383,"MEAN_MOTION_DDOT":0},{"OBJECT_NAME":"KINEIS-1D","OBJECT_ID":"2024-114D","EPOCH":"2026-07-20T23:59:29.779872","CLASSIFICATION_TYPE":"U","MEAN_MOTION":14.76367116,"ECCENTRICITY":0.00029713,"INCLINATION":97.9879,"RA_OF_ASC_NODE":221.767,"ARG_OF_PERICENTER":89.4847,"MEAN_ANOMALY":270.6703,"EPHEMERIS_TYPE":0,"NORAD_CAT_ID":60082,"ELEMENT_SET_NO":999,"REV_AT_EPOCH":11211,"BSTAR":0.000063071282,"MEAN_MOTION_DOT":0.00000387,"MEAN_MOTION_DDOT":0},{"OBJECT_NAME":"KINEIS-1E","OBJECT_ID":"2024-114E","EPOCH":"2026-07-20T23:02:59.333280","CLASSIFICATION_TYPE":"U","MEAN_MOTION":14.80699754,"ECCENTRICITY":0.00042308,"INCLINATION":97.8945,"RA_OF_ASC_NODE":224.8467,"ARG_OF_PERICENTER":97.8334,"MEAN_ANOMALY":262.3359,"EPHEMERIS_TYPE":0,"NORAD_CAT_ID":60083,"ELEMENT_SET_NO":999,"REV_AT_EPOCH":11238,"BSTAR":0.000067271837,"MEAN_MOTION_DOT":0.00000466,"MEAN_MOTION_DDOT":0},{"OBJECT_NAME":"KINEIS-1A","OBJECT_ID":"2024-114F","EPOCH":"2026-07-20T23:51:12.466656","CLASSIFICATION_TYPE":"U","MEAN_MOTION":14.80687342,"ECCENTRICITY":0.0005075,"INCLINATION":97.8918,"RA_OF_ASC_NODE":224.9714,"ARG_OF_PERICENTER":48.1634,"MEAN_ANOMALY":312.001,"EPHEMERIS_TYPE":0,"NORAD_CAT_ID":60084,"ELEMENT_SET_NO":999,"REV_AT_EPOCH":11239,"BSTAR":0.000062313369,"MEAN_MOTION_DOT":0.00000427,"MEAN_MOTION_DDOT":0},{"OBJECT_NAME":"KINEIS-3C","OBJECT_ID":"2024-172A","EPOCH":"2026-07-20T18:45:27.009504","CLASSIFICATION_TYPE":"U","MEAN_MOTION":14.72300489,"ECCENTRICITY":0.00024899,"INCLINATION":98.0432,"RA_OF_ASC_NODE":291.3244,"ARG_OF_PERICENTER":73.8524,"MEAN_ANOMALY":286.2957,"EPHEMERIS_TYPE":0,"NORAD_CAT_ID":61220,"ELEMENT_SET_NO":999,"REV_AT_EPOCH":9801,"BSTAR":0.00015567081,"MEAN_MOTION_DOT":0.00000934,"MEAN_MOTION_DDOT":0},{"OBJECT_NAME":"KINEIS-3D","OBJECT_ID":"2024-172B","EPOCH":"2026-07-20T05:32:51.276192","CLASSIFICATION_TYPE":"U","MEAN_MOTION":14.72296085,"ECCENTRICITY":0.00023203,"INCLINATION":98.0434,"RA_OF_ASC_NODE":290.79,"ARG_OF_PERICENTER":76.5452,"MEAN_ANOMALY":283.6014,"EPHEMERIS_TYPE":0,"NORAD_CAT_ID":61221,"ELEMENT_SET_NO":999,"REV_AT_EPOCH":9821,"BSTAR":0.000093069286,"MEAN_MOTION_DOT":0.00000538,"MEAN_MOTION_DDOT":0},{"OBJECT_NAME":"KINEIS-3E","OBJECT_ID":"2024-172C","EPOCH":"2026-07-20T18:11:14.043552","CLASSIFICATION_TYPE":"U","MEAN_MOTION":14.72286901,"ECCENTRICITY":0.00016657,"INCLINATION":98.0427,"RA_OF_ASC_NODE":291.2918,"ARG_OF_PERICENTER":85.835,"MEAN_ANOMALY":274.3047,"EPHEMERIS_TYPE":0,"NORAD_CAT_ID":61222,"ELEMENT_SET_NO":999,"REV_AT_EPOCH":9829,"BSTAR":0.00015303394,"MEAN_MOTION_DOT":0.00000917,"MEAN_MOTION_DDOT":0},{"OBJECT_NAME":"KINEIS-3A","OBJECT_ID":"2024-172D","EPOCH":"2026-07-20T19:25:05.021760","CLASSIFICATION_TYPE":"U","MEAN_MOTION":14.72320264,"ECCENTRICITY":0.00017747,"INCLINATION":98.0423,"RA_OF_ASC_NODE":291.4407,"ARG_OF_PERICENTER":29.925,"MEAN_ANOMALY":330.2058,"EPHEMERIS_TYPE":0,"NORAD_CAT_ID":61223,"ELEMENT_SET_NO":999,"REV_AT_EPOCH":9772,"BSTAR":0.00015202247,"MEAN_MOTION_DOT":0.00000911,"MEAN_MOTION_DDOT":0},{"OBJECT_NAME":"KINEIS-3B","OBJECT_ID":"2024-172E","EPOCH":"2026-07-20T19:00:08.505504","CLASSIFICATION_TYPE":"U","MEAN_MOTION":14.72306457,"ECCENTRICITY":0.00011768,"INCLINATION":98.0418,"RA_OF_ASC_NODE":291.4454,"ARG_OF_PERICENTER":13.8201,"MEAN_ANOMALY":346.3038,"EPHEMERIS_TYPE":0,"NORAD_CAT_ID":61224,"ELEMENT_SET_NO":999,"REV_AT_EPOCH":9829,"BSTAR":0.00015157333,"MEAN_MOTION_DOT":0.00000908,"MEAN_MOTION_DDOT":0},{"OBJECT_NAME":"KINEIS-5C","OBJECT_ID":"2024-219A","EPOCH":"2026-07-20T21:42:59.095296","CLASSIFICATION_TYPE":"U","MEAN_MOTION":14.72319063,"ECCENTRICITY":0.00045992,"INCLINATION":97.9075,"RA_OF_ASC_NODE":359.8266,"ARG_OF_PERICENTER":156.9484,"MEAN_ANOMALY":203.1931,"EPHEMERIS_TYPE":0,"NORAD_CAT_ID":62081,"ELEMENT_SET_NO":999,"REV_AT_EPOCH":8871,"BSTAR":0.000065968121,"MEAN_MOTION_DOT":0.00000369,"MEAN_MOTION_DDOT":0},{"OBJECT_NAME":"KINEIS-5D","OBJECT_ID":"2024-219B","EPOCH":"2026-07-20T22:20:09.612384","CLASSIFICATION_TYPE":"U","MEAN_MOTION":14.72499931,"ECCENTRICITY":0.00057025,"INCLINATION":97.9186,"RA_OF_ASC_NODE":359.929,"ARG_OF_PERICENTER":151.454,"MEAN_ANOMALY":208.6981,"EPHEMERIS_TYPE":0,"NORAD_CAT_ID":62082,"ELEMENT_SET_NO":999,"REV_AT_EPOCH":8872,"BSTAR":0.000098298437,"MEAN_MOTION_DOT":0.00000576,"MEAN_MOTION_DDOT":0},{"OBJECT_NAME":"KINEIS-5E","OBJECT_ID":"2024-219C","EPOCH":"2026-07-20T21:09:03.803328","CLASSIFICATION_TYPE":"U","MEAN_MOTION":14.72303463,"ECCENTRICITY":0.00071787,"INCLINATION":97.9031,"RA_OF_ASC_NODE":359.8948,"ARG_OF_PERICENTER":148.189,"MEAN_ANOMALY":211.9752,"EPHEMERIS_TYPE":0,"NORAD_CAT_ID":62083,"ELEMENT_SET_NO":999,"REV_AT_EPOCH":8872,"BSTAR":0.000066656883,"MEAN_MOTION_DOT":0.00000373,"MEAN_MOTION_DDOT":0},{"OBJECT_NAME":"KINEIS-5A","OBJECT_ID":"2024-219D","EPOCH":"2026-07-20T22:15:42.665760","CLASSIFICATION_TYPE":"U","MEAN_MOTION":14.72282157,"ECCENTRICITY":0.00042016,"INCLINATION":97.8972,"RA_OF_ASC_NODE":0.215,"ARG_OF_PERICENTER":180.7683,"MEAN_ANOMALY":179.3519,"EPHEMERIS_TYPE":0,"NORAD_CAT_ID":62084,"ELEMENT_SET_NO":999,"REV_AT_EPOCH":8873,"BSTAR":0.000093403504,"MEAN_MOTION_DOT":0.00000542,"MEAN_MOTION_DDOT":0},{"OBJECT_NAME":"KINEIS-5B","OBJECT_ID":"2024-219E","EPOCH":"2026-07-20T22:58:02.067168","CLASSIFICATION_TYPE":"U","MEAN_MOTION":14.78392849,"ECCENTRICITY":0.00028112,"INCLINATION":98.0096,"RA_OF_ASC_NODE":5.6017,"ARG_OF_PERICENTER":134.2607,"MEAN_ANOMALY":225.8835,"EPHEMERIS_TYPE":0,"NORAD_CAT_ID":62085,"ELEMENT_SET_NO":999,"REV_AT_EPOCH":8899,"BSTAR":0.000096514636,"MEAN_MOTION_DOT":0.00000651,"MEAN_MOTION_DDOT":0},{"OBJECT_NAME":"KINEIS-2C","OBJECT_ID":"2025-028B","EPOCH":"2026-07-20T20:51:05.176224","CLASSIFICATION_TYPE":"U","MEAN_MOTION":14.73439299,"ECCENTRICITY":0.00046284,"INCLINATION":98.1226,"RA_OF_ASC_NODE":256.2978,"ARG_OF_PERICENTER":144.9699,"MEAN_ANOMALY":215.1814,"EPHEMERIS_TYPE":0,"NORAD_CAT_ID":62929,"ELEMENT_SET_NO":999,"REV_AT_EPOCH":7757,"BSTAR":0.00015018018,"MEAN_MOTION_DOT":0.00000923,"MEAN_MOTION_DDOT":0}]}
